NORAD_CAT_ID,OBJECT_NAME,OBJECT_TYPE,EPOCH,MEAN_MOTION,ECCENTRICITY,INCLINATION,RA_OF_ASC_NODE,ARG_OF_PERICENTER,MEAN_ANOMALY,BSTAR,MEAN_MOTION_DOT,MEAN_MOTION_DDOT,TLE_LINE0,TLE_LINE1,TLE_LINE2,SEMIMAJOR_AXIS,PERIOD,APOGEE,PERIGEE,DECAYED
52707.0,STARLINK-4007,PAYLOAD,2022-09-10 22:00:00,15.08845585,0.000175,53.2156,101.2911,47.8176,107.3393,-0.00083888,-0.00013616,0.0,0 STARLINK-4007,1 52707U 22053BD  22253.91667824 -.00013616  00000-0 -83888-3 0  9997,2 52707  53.2156 101.2911 0001750  47.8176 107.3393 15.08845585  1305,6917.863,95.437,540.939,538.518,0.0
52707.0,STARLINK-4007,PAYLOAD,2022-09-11 14:00:01,15.08833353,0.0001686999999999,53.2154,98.2964,57.1226,121.2167,0.0010911,0.00017116,0.0,0 STARLINK-4007,1 52707U 22053BD  22254.58334491  .00017116  00000-0  10911-2 0  9995,2 52707  53.2154  98.2964 0001687  57.1226 121.2167 15.08833353 18396,6917.901,95.438,540.933,538.599,0.0
52707.0,STARLINK-4007,PAYLOAD,2022-09-11 22:00:00,15.08829437,0.0001839,53.2152,96.8016,49.7822,140.1551,0.001484,0.00023402,0.0,0 STARLINK-4007,1 52707U 22053BD  22254.91667824  .00023402  00000-0  14840-2 0  9991,2 52707  53.2152  96.8016 0001839  49.7822 140.1551 15.08829437  1302,6917.913000000001,95.438,541.05,538.505,0.0
52707.0,STARLINK-4007,PAYLOAD,2022-09-12 06:00:00,15.08863676,0.0001696999999999,53.215,95.3038,50.3649,151.1553,-0.0042413,-0.00067203,0.0,0 STARLINK-4007,1 52707U 22053BD  22255.25001157 -.00067203  00000-0 -42413-2 0  9996,2 52707  53.2150  95.3038 0001697  50.3649 151.1553 15.08863676 18490,6917.808000000001,95.436,540.847,538.499,0.0
52707.0,STARLINK-4007,PAYLOAD,2022-09-12 12:00:00,15.08811496,0.0001623,53.2151,94.1805,54.0974,66.1311,0.0026733,0.00042481,0.0,0 STARLINK-4007,1 52707U 22053BD  22255.50001157  .00042481  00000-0  26733-2 0  9990,2 52707  53.2151  94.1805 0001623  54.0974  66.1311 15.08811496 18536,6917.968000000003,95.439,540.955,538.71,0.0
52707.0,STARLINK-4007,PAYLOAD,2022-09-12 14:00:01,15.0883194,0.0001652,53.2153,93.8068,54.8302,158.2854,0.00084312,0.00013153,0.0,0 STARLINK-4007,1 52707U 22053BD  22255.58334491  .00013153  00000-0  84312-3 0  9990,2 52707  53.2153  93.8068 0001652  54.8302 158.2854 15.08831940  1308,6917.905,95.438,540.913,538.627,0.0
52707.0,STARLINK-4007,PAYLOAD,2022-09-12 22:00:00,15.08822024,0.0001841,53.2153,92.312,47.323,177.3867,0.0021471,0.00034032,0.0,0 STARLINK-4007,1 52707U 22053BD  22255.91667824  .00034032  00000-0  21471-2 0  9991,2 52707  53.2153  92.3120 0001841  47.3230 177.3867 15.08822024  1307,6917.935,95.439,541.0740000000002,538.5269999999998,0.0
52707.0,STARLINK-4007,PAYLOAD,2022-09-13 06:00:00,15.08868096,0.000168,53.2154,90.8141,47.7452,188.5498,-0.003895,-0.00061793,0.0,0 STARLINK-4007,1 52707U 22053BD  22256.25001157 -.00061793  00000-0 -38950-2 0  9996,2 52707  53.2154  90.8141 0001680  47.7452 188.5498 15.08868096 18643,6917.795,95.436,540.822,538.497,0.0
52707.0,STARLINK-4007,PAYLOAD,2022-09-13 14:00:01,15.08835336,0.0001636999999999,53.2156,89.3173,51.5329,196.3617,0.00061131,9.453e-05,0.0,0 STARLINK-4007,1 52707U 22053BD  22256.58334491  .00009453  00000-0  61131-3 0  9993,2 52707  53.2156  89.3173 0001637  51.5329 196.3617 15.08835336  1307,6917.895,95.438,540.8919999999998,538.627,0.0
52707.0,STARLINK-4007,PAYLOAD,2022-09-13 16:00:00,15.08847561,0.0001666999999999,53.216,88.9424,49.6596,291.1304,-0.00097507,-0.00015776,0.0,0 STARLINK-4007,1 52707U 22053BD  22256.66667824 -.00015776  00000-0 -97507-3 0  9994,2 52707  53.2160  88.9424 0001667  49.6596 291.1304 15.08847561 18705,6917.857,95.437,540.875,538.569,0.0
52707.0,STARLINK-4007,PAYLOAD,2022-09-13 22:00:00,15.08824983,0.0001874,53.2158,87.8226,45.5247,213.9642,0.0016132999999999,0.00025471,0.0,0 STARLINK-4007,1 52707U 22053BD  22256.91667824  .00025471  00000-0  16133-2 0  9998,2 52707  53.2158  87.8226 0001874  45.5247 213.9642 15.08824983  1306,6917.926,95.439,541.0880000000002,538.495,0.0
52707.0,STARLINK-4007,PAYLOAD,2022-09-14 14:00:01,15.08802701,0.0001818,53.2168,84.8222,49.7244,232.9416,0.0029974,0.0004769,0.0,0 STARLINK-4007,1 52707U 22053BD  22257.58334491  .00047690  00000-0  29974-2 0  9997,2 52707  53.2168  84.8222 0001818  49.7244 232.9416 15.08802701  1305,6917.994000000002,95.44,541.117,538.602,0.0
52707.0,STARLINK-4007,PAYLOAD,2022-09-14 22:00:00,15.08813131,0.0002019,53.2166,83.3333,47.6488,246.5964,0.0027372,0.00043512,0.0,0 STARLINK-4007,1 52707U 22053BD  22257.91667824  .00043512  00000-0  27372-2 0  9992,2 52707  53.2166  83.3333 0002019  47.6488 246.5964 15.08813131 18891,6917.9630000000025,95.439,541.224,538.431,0.0
52707.0,STARLINK-4007,PAYLOAD,2022-09-15 14:00:01,15.08865969,0.0001802,53.2172,80.339,51.9372,265.4884,-0.0027789,-0.00044275,0.0,0 STARLINK-4007,1 52707U 22053BD  22258.58334491 -.00044275  00000-0 -27789-2 0  9998,2 52707  53.2172  80.3390 0001802  51.9372 265.4884 15.08865969  1302,6917.801,95.436,540.913,538.419,0.0
52707.0,STARLINK-4007,PAYLOAD,2022-09-15 15:46:42,15.0884117,0.0001986,53.2187,80.0105,32.2793,327.832,6.9868e-05,8.24e-06,0.0,0 STARLINK-4007,1 52707U 22053BD  22258.65743264  .00000824  00000-0  69868-4 0  9994,2 52707  53.2187  80.0105 0001986  32.2793 327.8320 15.08841170 19003,6917.877,95.437,541.116,538.368,0.0
52707.0,STARLINK-4007,PAYLOAD,2022-09-16 12:26:43,15.08826065,0.000246,53.2112,76.14,52.8218,307.2998,0.00010434,1.372e-05,0.0,0 STARLINK-4007,1 52707U 22053BD  22259.51856170  .00001372  00000-0  10434-3 0  9994,2 52707  53.2112  76.1400 0002460  52.8218 307.2998 15.08826065 19136,6917.9230000000025,95.438,541.49,538.086,0.0
52707.0,STARLINK-4007,PAYLOAD,2022-09-17 12:17:31,15.08832759,0.0002035,53.216,71.6796,53.6587,306.4593,-5.8011e-05,-1.211e-05,0.0,0 STARLINK-4007,1 52707U 22053BD  22260.51216731 -.00001211  00000-0 -58011-4 0  9997,2 52707  53.2160  71.6796 0002035  53.6587 306.4593 15.08832759 19772,6917.903,95.438,541.175,538.36,0.0
52707.0,STARLINK-4007,PAYLOAD,2022-09-17 20:14:26,15.08841308,0.0002123,53.2195,70.1926,29.1317,330.9794,-4.8792e-05,-1.065e-05,0.0,0 STARLINK-4007,1 52707U 22053BD  22260.84336211 -.00001065  00000-0 -48792-4 0  9991,2 52707  53.2195  70.1926 0002123  29.1317 330.9794 15.08841308 19333,6917.876,95.437,541.21,538.273,0.0
52707.0,STARLINK-4007,PAYLOAD,2022-09-18 12:08:17,15.08840277,0.0001924,53.2196,67.2205,54.9178,305.1995,2.0099e-05,3.2e-07,0.0,0 STARLINK-4007,1 52707U 22053BD  22261.50576106  .00000032  00000-0  20099-4 0  9995,2 52707  53.2196  67.2205 0001924  54.9178 305.1995 15.08840277 19926,6917.88,95.438,541.076,538.414,0.0
52707.0,STARLINK-4007,PAYLOAD,2022-09-18 20:05:13,15.088348000000002,0.0001885,53.2184,65.7332,48.9418,311.1737,-2.5223e-05,-6.89e-06,0.0,0 STARLINK-4007,1 52707U 22053BD  22261.83696659 -.00000689  00000-0 -25223-4 0  9991,2 52707  53.2184  65.7332 0001885  48.9418 311.1737 15.08834800 19974,6917.896,95.438,541.065,538.457,0.0
52707.0,STARLINK-4007,PAYLOAD,2022-09-18 21:40:36,15.08835441,0.0001829,53.2183,65.4355,51.2338,308.8817,-9.6103e-06,-4.41e-06,0.0,0 STARLINK-4007,1 52707U 22053BD  22261.90320551 -.00000441  00000-0 -96103-5 0  9996,2 52707  53.2183  65.4355 0001829  51.2338 308.8817 15.08835441 19492,6917.894,95.438,541.025,538.494,0.0
52707.0,STARLINK-4007,PAYLOAD,2022-09-19 10:23:41,15.08836389,0.0001869,53.218,63.0566,50.8606,309.2552,7.0034e-05,8.27e-06,0.0,0 STARLINK-4007,1 52707U 22053BD  22262.43312361  .00000827  00000-0  70034-4 0  9995,2 52707  53.2180  63.0566 0001869  50.8606 309.2552 15.08836389 20062,6917.891,95.438,541.049,538.4630000000002,0.0
52707.0,STARLINK-4007,PAYLOAD,2022-09-19 13:34:28,15.08838986,0.0002037,53.2174,62.4623,51.9591,308.1585,7.0715e-05,8.37e-06,0.0,0 STARLINK-4007,1 52707U 22053BD  22262.56560220  .00000837  00000-0  70715-4 0  9995,2 52707  53.2174  62.4623 0002037  51.9591 308.1585 15.08838986 19590,6917.8830000000025,95.438,541.158,538.339,0.0
52707.0,STARLINK-4007,PAYLOAD,2022-09-20 10:14:28,15.08839114,0.0001889,53.2186,58.5967,52.1103,308.006,2.2638e-05,7.2e-07,0.0,0 STARLINK-4007,1 52707U 22053BD  22263.42672398  .00000072  00000-0  22638-4 0  9993,2 52707  53.2186  58.5967 0001889  52.1103 308.0060 15.08839114 20218,6917.8830000000025,95.438,541.055,538.441,0.0
52707.0,STARLINK-4007,PAYLOAD,2022-09-20 18:11:24,15.08840071,0.0001993,53.2182,57.11,51.2468,308.8702,6.7167e-05,7.81e-06,0.0,0 STARLINK-4007,1 52707U 22053BD  22263.75792166  .00000781  00000-0  67167-4 0  9998,2 52707  53.2182  57.1100 0001993  51.2468 308.8702 15.08840071 19772,6917.88,95.438,541.124,538.366,0.0
52707.0,STARLINK-4007,PAYLOAD,2022-09-21 19:37:34,15.08838286,0.000216,53.2179,52.3557,41.4491,318.6664,1.6253e-05,-3e-07,0.0,0 STARLINK-4007,1 52707U 22053BD  22264.81776464 -.00000030  00000-0  16253-4 0  9997,2 52707  53.2179  52.3557 0002160  41.4491 318.6664 15.08838286 19934,6917.886,95.438,541.245,538.256,0.0
52707.0,STARLINK-4007,PAYLOAD,2022-09-22 13:06:48,15.08844246,0.0001965,53.2187,49.084,45.2022,314.9129,3.7054e-05,3.02e-06,0.0,0 STARLINK-4007,1 52707U 22053BD  22265.54639856  .00000302  00000-0  37054-4 0  9994,2 52707  53.2187  49.0840 0001965  45.2022 314.9129 15.08844246 20047,6917.8669999999975,95.437,541.092,538.373,0.0
52707.0,STARLINK-4007,PAYLOAD,2022-09-22 16:17:35,15.08838762,0.0001895,53.2183,48.4866,44.3698,315.7446,-1.2779e-05,-4.92e-06,0.0,0 STARLINK-4007,1 52707U 22053BD  22265.67888367 -.00000492  00000-0 -12779-4 0  9990,2 52707  53.2183  48.4866 0001895  44.3698 315.7446 15.08838762 20064,6917.884,95.438,541.06,538.438,0.0
52707.0,STARLINK-4007,PAYLOAD,2022-09-23 12:57:37,15.08826486,0.0001673,53.2186,44.6196,36.9521,323.1587,-0.0001215,-2.22e-05,0.0,0 STARLINK-4007,1 52707U 22053BD  22266.54001936 -.00002220  00000-0 -12150-3 0  9999,2 52707  53.2186  44.6196 0001673  36.9521 323.1587 15.08826486 20684,6917.922,95.438,540.944,538.629,0.0
